{"type": "FeatureCollection", "features": [ {"type": "Feature", "properties": {"norad_id": 60989, "name": "SENTINEL-2C", "group": "resource", "lat": -29.411378662009245, "lon": 77.32258785811509, "alt_km": 795.526981447244, "timestamp": "2025-12-26T03:50:11.745724+00:00", "meta": {"OBJECT_NAME": "SENTINEL-2C", "OBJECT_ID": "2024-157A", "EPOCH": "2025-12-25T19:35:01.944672", "MEAN_MOTION": 14.30817849, "ECCENTRICITY": 0.0001386, "INCLINATION": 98.5666, "RA_OF_ASC_NODE": 72.1092, "ARG_OF_PERICENTER": 102.9981, "MEAN_ANOMALY": 257.1356, "EPHEMERIS_TYPE": 0, "CLASSIFICATION_TYPE": "U", "NORAD_CAT_ID": 60989, "ELEMENT_SET_NO": 999, "REV_AT_EPOCH": 6819, "BSTAR": 0.00010096, "MEAN_MOTION_DOT": 2.21e-06, "MEAN_MOTION_DDOT": 0}, "tle": {"line1": "1 60989U 24157A   25359.81599473  .00000221  00000+0  10096-3 0  9994", "line2": "2 60989  98.5666  72.1092 0001386 102.9981 257.1356 14.30817849 68191"}}, "geometry": {"type": "Point", "coordinates": [77.32258785811509, -29.411378662009245]}}, {"type": "Feature", "properties": {"norad_id": 61735, "name": "IONOSFERA-M 1", "group": "resource", "lat": -25.740814498765783, "lon": 45.65070329620526, "alt_km": 821.9759150562668, "timestamp": "2025-12-26T03:50:11.745737+00:00", "meta": {"OBJECT_NAME": "IONOSFERA-M 1", "OBJECT_ID": "2024-199A", "EPOCH": "2025-12-25T20:07:12.192384", "MEAN_MOTION": 14.22716879, "ECCENTRICITY": 3.09e-05, "INCLINATION": 98.7403, "RA_OF_ASC_NODE": 229.5855, "ARG_OF_PERICENTER": 4.999, "MEAN_ANOMALY": 355.1191, "EPHEMERIS_TYPE": 0, "CLASSIFICATION_TYPE": "U", "NORAD_CAT_ID": 61735, "ELEMENT_SET_NO": 999, "REV_AT_EPOCH": 10305, "BSTAR": 4.6062e-05, "MEAN_MOTION_DOT": 5.9e-07, "MEAN_MOTION_DDOT": 0}, "tle": {"line1": "1 61735U 24199A   25359.83833556  .00000059  00000+0  46062-4 0  9997", "line2": "2 61735  98.7403 229.5855 0000309   4.9990 355.1191 14.22716879103055"}}, "geometry": {"type": "Point", "coordinates": [45.65070329620526, -25.740814498765783]}}, {"type": "Feature", "properties": {"norad_id": 61736, "name": "IONOSFERA-M 2", "group": "resource", "lat": 28.245042565722706, "lon": -134.92331721620445, "alt_km": 814.2776124293305, "timestamp": "2025-12-26T03:50:11.745747+00:00", "meta": {"OBJECT_NAME": "IONOSFERA-M 2", "OBJECT_ID": "2024-199B", "EPOCH": "2025-12-25T20:57:04.019616", "MEAN_MOTION": 14.22719058, "ECCENTRICITY": 0.0001868, "INCLINATION": 98.7394, "RA_OF_ASC_NODE": 229.5322, "ARG_OF_PERICENTER": 93.6703, "MEAN_ANOMALY": 266.4689, "EPHEMERIS_TYPE": 0, "CLASSIFICATION_TYPE": "U", "NORAD_CAT_ID": 61736, "ELEMENT_SET_NO": 999, "REV_AT_EPOCH": 10618, "BSTAR": 4.8543e-05, "MEAN_MOTION_DOT": 6.5e-07, "MEAN_MOTION_DDOT": 0}, "tle": {"line1": "1 61736U 24199B   25359.87296319  .00000065  00000+0  48543-4 0  9995", "line2": "2 61736  98.7394 229.5322 0001868  93.6703 266.4689 14.22719058106187"}}, "geometry": {"type": "Point", "coordinates": [-134.92331721620445, 28.245042565722706]}}, {"type": "Feature", "properties": {"norad_id": 63772, "name": "BIOMASS", "group": "resource", "lat": -42.16865701049188, "lon": -2.4092584493674765, "alt_km": 676.1179907227233, "timestamp": "2025-12-26T03:50:11.745757+00:00", "meta": {"OBJECT_NAME": "BIOMASS", "OBJECT_ID": "2025-090A", "EPOCH": "2025-12-25T12:05:53.117664", "MEAN_MOTION": 14.67538757, "ECCENTRICITY": 0.0001045, "INCLINATION": 98.0694, "RA_OF_ASC_NODE": 184.3277, "ARG_OF_PERICENTER": 84.0094, "MEAN_ANOMALY": 276.1229, "EPHEMERIS_TYPE": 0, "CLASSIFICATION_TYPE": "U", "NORAD_CAT_ID": 63772, "ELEMENT_SET_NO": 999, "REV_AT_EPOCH": 3521, "BSTAR": 0.00023361, "MEAN_MOTION_DOT": 1.277e-05, "MEAN_MOTION_DDOT": 0}, "tle": {"line1": "1 63772U 25090A   25359.50408701  .00001277  00000+0  23361-3 0  9994", "line2": "2 63772  98.0694 184.3277 0001045  84.0094 276.1229 14.67538757 35213"}}, "geometry": {"type": "Point", "coordinates": [-2.4092584493674765, -42.16865701049188]}}, {"type": "Feature", "properties": {"norad_id": 64694, "name": "GOSAT-GW (IBUKI GW)", "group": "resource", "lat": 71.50302739281324, "lon": -89.57651314804002, "alt_km": 660.9645355609582, "timestamp": "2025-12-26T03:50:11.745767+00:00", "meta": {"OBJECT_NAME": "GOSAT-GW (IBUKI GW)", "OBJECT_ID": "2025-141A", "EPOCH": "2025-12-25T19:19:19.890048", "MEAN_MOTION": 14.67561109, "ECCENTRICITY": 0.0001427, "INCLINATION": 98.044, "RA_OF_ASC_NODE": 295.0821, "ARG_OF_PERICENTER": 82.0931, "MEAN_ANOMALY": 278.0436, "EPHEMERIS_TYPE": 0, "CLASSIFICATION_TYPE": "U", "NORAD_CAT_ID": 64694, "ELEMENT_SET_NO": 999, "REV_AT_EPOCH": 2641, "BSTAR": 0.00019803, "MEAN_MOTION_DOT": 1.076e-05, "MEAN_MOTION_DDOT": 0}, "tle": {"line1": "1 64694U 25141A   25359.80509132  .00001076  00000+0  19803-3 0  9991", "line2": "2 64694  98.0440 295.0821 0001427  82.0931 278.0436 14.67561109 26413"}}, "geometry": {"type": "Point", "coordinates": [-89.57651314804002, 71.50302739281324]}}, {"type": "Feature", "properties": {"norad_id": 64876, "name": "IONOSFERA-M 3", "group": "resource", "lat": 11.02960212109423, "lon": -40.039094871330036, "alt_km": 820.6818127402994, "timestamp": "2025-12-26T03:50:11.745777+00:00", "meta": {"OBJECT_NAME": "IONOSFERA-M 3", "OBJECT_ID": "2025-155A", "EPOCH": "2025-12-25T21:01:36.335136", "MEAN_MOTION": 14.21444175, "ECCENTRICITY": 0.0001816, "INCLINATION": 98.5801, "RA_OF_ASC_NODE": 321.3715, "ARG_OF_PERICENTER": 38.779, "MEAN_ANOMALY": 321.3518, "EPHEMERIS_TYPE": 0, "CLASSIFICATION_TYPE": "U", "NORAD_CAT_ID": 64876, "ELEMENT_SET_NO": 999, "REV_AT_EPOCH": 2178, "BSTAR": 5.9755e-05, "MEAN_MOTION_DOT": 8.8e-07, "MEAN_MOTION_DDOT": 0}, "tle": {"line1": "1 64876U 25155A   25359.87611499  .00000088  00000+0  59755-4 0  9998", "line2": "2 64876  98.5801 321.3715 0001816  38.7790 321.3518 14.21444175 21780"}}, "geometry": {"type": "Point", "coordinates": [-40.039094871330036, 11.02960212109423]}}, {"type": "Feature", "properties": {"norad_id": 64877, "name": "IONOSFERA-M 4", "group": "resource", "lat": -11.97931240581614, "lon": 139.730945496287, "alt_km": 825.520410029807, "timestamp": "2025-12-26T03:50:11.745787+00:00", "meta": {"OBJECT_NAME": "IONOSFERA-M 4", "OBJECT_ID": "2025-155B", "EPOCH": "2025-12-25T20:10:43.415328", "MEAN_MOTION": 14.21445336, "ECCENTRICITY": 0.0001254, "INCLINATION": 98.5801, "RA_OF_ASC_NODE": 321.2566, "ARG_OF_PERICENTER": 51.0913, "MEAN_ANOMALY": 309.0376, "EPHEMERIS_TYPE": 0, "CLASSIFICATION_TYPE": "U", "NORAD_CAT_ID": 64877, "ELEMENT_SET_NO": 999, "REV_AT_EPOCH": 2177, "BSTAR": 6.5142e-05, "MEAN_MOTION_DOT": 1e-06, "MEAN_MOTION_DDOT": 0}, "tle": {"line1": "1 64877U 25155B   25359.84078027  .00000100  00000+0  65142-4 0  9992", "line2": "2 64877  98.5801 321.2566 0001254  51.0913 309.0376 14.21445336 21779"}}, "geometry": {"type": "Point", "coordinates": [139.730945496287, -11.97931240581614]}}, {"type": "Feature", "properties": {"norad_id": 64899, "name": "MICROCARB", "group": "resource", "lat": -81.83882611186736, "lon": 176.54413425144753, "alt_km": 673.7224641537423, "timestamp": "2025-12-26T03:50:11.745797+00:00", "meta": {"OBJECT_NAME": "MICROCARB", "OBJECT_ID": "2025-156A", "EPOCH": "2025-12-25T16:50:02.395104", "MEAN_MOTION": 14.72077609, "ECCENTRICITY": 0.001765, "INCLINATION": 98.001, "RA_OF_ASC_NODE": 74.8383, "ARG_OF_PERICENTER": 105.9485, "MEAN_ANOMALY": 254.3669, "EPHEMERIS_TYPE": 0, "CLASSIFICATION_TYPE": "U", "NORAD_CAT_ID": 64899, "ELEMENT_SET_NO": 999, "REV_AT_EPOCH": 2244, "BSTAR": 0.0001274, "MEAN_MOTION_DOT": 7.53e-06, "MEAN_MOTION_DDOT": 0}, "tle": {"line1": "1 64899U 25156A   25359.70141661  .00000753  00000+0  12740-3 0  9996", "line2": "2 64899  98.0010  74.8383 0017650 105.9485 254.3669 14.72077609 22440"}}, "geometry": {"type": "Point", "coordinates": [176.54413425144753, -81.83882611186736]}}, {"type": "Feature", "properties": {"norad_id": 64900, "name": "CO3D 3", "group": "resource", "lat": 67.45829967211404, "lon": -85.3287242658787, "alt_km": 498.2220499368532, "timestamp": "2025-12-26T03:50:11.745807+00:00", "meta": {"OBJECT_NAME": "CO3D 3", "OBJECT_ID": "2025-156B", "EPOCH": "2025-12-25T19:27:00.379584", "MEAN_MOTION": 15.20184593, "ECCENTRICITY": 0.000236, "INCLINATION": 97.4335, "RA_OF_ASC_NODE": 75.9927, "ARG_OF_PERICENTER": 40.7758, "MEAN_ANOMALY": 319.3653, "EPHEMERIS_TYPE": 0, "CLASSIFICATION_TYPE": "U", "NORAD_CAT_ID": 64900, "ELEMENT_SET_NO": 999, "REV_AT_EPOCH": 2319, "BSTAR": 0.00015834, "MEAN_MOTION_DOT": 3.36e-05, "MEAN_MOTION_DDOT": 0}, "tle": {"line1": "1 64900U 25156B   25359.81042106  .00003360  00000+0  15834-3 0  9999", "line2": "2 64900  97.4335  75.9927 0002360  40.7758 319.3653 15.20184593 23196"}}, "geometry": {"type": "Point", "coordinates": [-85.3287242658787, 67.45829967211404]}}, {"type": "Feature", "properties": {"norad_id": 64901, "name": "CO3D 4", "group": "resource", "lat": 68.27357210322623, "lon": -84.53918157790594, "alt_km": 497.93818042122894, "timestamp": "2025-12-26T03:50:11.745818+00:00", "meta": {"OBJECT_NAME": "CO3D 4", "OBJECT_ID": "2025-156C", "EPOCH": "2025-12-25T19:27:13.413024", "MEAN_MOTION": 15.20187174, "ECCENTRICITY": 0.0001324, "INCLINATION": 97.4336, "RA_OF_ASC_NODE": 75.9901, "ARG_OF_PERICENTER": 150.3858, "MEAN_ANOMALY": 209.7452, "EPHEMERIS_TYPE": 0, "CLASSIFICATION_TYPE": "U", "NORAD_CAT_ID": 64901, "ELEMENT_SET_NO": 999, "REV_AT_EPOCH": 2319, "BSTAR": 0.00020855, "MEAN_MOTION_DOT": 4.448e-05, "MEAN_MOTION_DDOT": 0}, "tle": {"line1": "1 64901U 25156C   25359.81057191  .00004448  00000+0  20855-3 0  9997", "line2": "2 64901  97.4336  75.9901 0001324 150.3858 209.7452 15.20187174 23195"}}, "geometry": {"type": "Point", "coordinates": [-84.53918157790594, 68.27357210322623]}}]}